KUIPER-00008            
1 63724U 25088A   25205.58335648 -.00489764  00000+0 -36885-1 0  9991
2 63724  51.8881  46.9626 0012158  57.7818 140.2092 15.04154742  4545
KUIPER-00009            
1 63725U 25088B   25205.58335648 -.01356994  00000+0 -66687-1 0  9994
2 63725  51.8766  41.2876 0012248  86.5176  45.8178 15.20754085  5922
KUIPER-00010            
1 63726U 25088C   25205.53821894  .00014120  00000+0  40702-3 0  9994
2 63726  51.8647  40.5674 0009881  68.0276 292.1759 15.35942955 13544
KUIPER-00011            
1 63727U 25088D   25205.56428677  .00014149  00000+0  41372-3 0  9995
2 63727  51.8576  40.6805 0011453  75.1804 285.0450 15.35476563 13688
KUIPER-00012            
1 63728U 25088E   25205.56272786  .00013726  00000+0  40048-3 0  9993
2 63728  51.8563  40.6591 0011577  76.8298 283.3978 15.35571236 13633
KUIPER-00013            
1 63729U 25088F   25205.58335648  .00012034  00000+0  59104-3 0  9997
2 63729  51.8758  41.8664 0007353  55.0891 152.0570 15.18431582  5775
KUIPER-00014            
1 63730U 25088G   25205.58335648 -.00404379  00000+0 -21303-1 0  9996
2 63730  51.8803  42.7834 0009954  75.9033  76.5712 15.16983933  5852
KUIPER-00015            
1 63731U 25088H   25205.58335648  .00002404  00000+0  23712-3 0  9996
2 63731  51.8883  50.6890 0010984  56.9670 105.4262 14.95566846  5579
